{
"type": "FeatureCollection",
"name": "Cobertura_SP",
"crs": { "type": "name", "properties": { "name": "urn:ogc:def:crs:OGC:1.3:CRS84" } },
"features": [
{ "type": "Feature", "properties": { "ObjectID": 1, "FacilityID": 2, "Name": "Location 2 : 0 - 10", "FromBreak": 0.0, "ToBreak": 10.0 }, "geometry": { "type": "MultiPolygon", "coordinates": [ [ [ [ -58.378502751686696, -34.704484675081112 ], [ -58.37753049155031, -34.704995940855348 ], [ -58.377521067389289, -34.706074026766935 ], [ -58.377407706799715, -34.706512555871868 ], [ -58.377372190849293, -34.707765594444226 ], [ -58.377242758157273, -34.708093524705966 ], [ -58.376545041749111, -34.708767445171475 ], [ -58.377243350227019, -34.709400749487664 ], [ -58.377132551645623, -34.709682584698633 ], [ -58.377144108146084, -34.710844174749944 ], [ -58.37700437489471, -34.711164384915548 ], [ -58.376282988479574, -34.711774468567555 ], [ -58.376286843823998, -34.711948666419325 ], [ -58.37629186905599, -34.711951560614153 ], [ -58.376888174377463, -34.712715489019338 ], [ -58.376823187127364, -34.71339414919796 ], [ -58.377636482852473, -34.713438604542631 ], [ -58.37855660684783, -34.713516642458856 ], [ -58.379527692062993, -34.713575778502545 ], [ -58.380303912361548, -34.71361694127436 ], [ -58.381432842240208, -34.713687269802627 ], [ -58.382078381676124, -34.713719175432907 ], [ -58.383256656138727, -34.713790378313838 ], [ -58.383881056202931, -34.713827727713344 ], [ -58.385134454725979, -34.713903434479406 ], [ -58.385648463851815, -34.713924282707374 ], [ -58.386985521831335, -34.714001976915085 ], [ -58.387913046877863, -34.713169881755739 ], [ -58.387987412592366, -34.712227664838316 ], [ -58.38801199399726, -34.711687405450149 ], [ -58.388082206247745, -34.710803416637887 ], [ -58.388258212046452, -34.710256372460215 ], [ -58.388333887989255, -34.709254089655481 ], [ -58.388334007421705, -34.709252680412483 ], [ -58.388302540250301, -34.709224265762217 ], [ -58.389051504940845, -34.708580697031316 ], [ -58.389056716830794, -34.708520974777386 ], [ -58.388427286678045, -34.70779534630357 ], [ -58.38840757756833, -34.707631040678173 ], [ -58.388504892940617, -34.70636003247143 ], [ -58.388499229791968, -34.705995225584687 ], [ -58.388578220378008, -34.704939819340787 ], [ -58.387310625963181, -34.704875432189624 ], [ -58.386827296816975, -34.704840339760246 ], [ -58.385387452541707, -34.704764097345922 ], [ -58.384641162348309, -34.704532610144668 ], [ -58.383236492526741, -34.704541674641781 ], [ -58.382870224536774, -34.704472658613653 ], [ -58.381500305959015, -34.704498349250265 ], [ -58.381118717131713, -34.704488030717293 ], [ -58.380118016366055, -34.704507359238775 ], [ -58.379347565667928, -34.704487310214823 ], [ -58.378502751686696, -34.704484675081112 ] ] ] ] } },
{ "type": "Feature", "properties": { "ObjectID": 2, "FacilityID": 3, "Name": "Location 3 : 0 - 10", "FromBreak": 0.0, "ToBreak": 10.0 }, "geometry": { "type": "MultiPolygon", "coordinates": [ [ [ [ -58.424239854626862, -34.710123837184518 ], [ -58.424579339505911, -34.711356289281966 ], [ -58.424701973337555, -34.711737767028076 ], [ -58.425033131609489, -34.712955929579209 ], [ -58.425183576002325, -34.713399844377705 ], [ -58.425503968626842, -34.714561900022986 ], [ -58.427073961477859, -34.714721154702794 ], [ -58.427080615779886, -34.714724792917409 ], [ -58.428120143032444, -34.715094381607244 ], [ -58.428184328959325, -34.714970721491866 ], [ -58.428211429118811, -34.714932218156896 ], [ -58.428212555327526, -34.714930743000934 ], [ -58.428228562445391, -34.714934406693814 ], [ -58.428283119777547, -34.71483957297999 ], [ -58.42833621331615, -34.714747282824099 ], [ -58.428353340577416, -34.714748232090969 ], [ -58.428358063807778, -34.714740560498271 ], [ -58.428369291004145, -34.714741111156165 ], [ -58.42842828656449, -34.714649215938515 ], [ -58.428486284830115, -34.714558872754772 ], [ -58.428498380369206, -34.7145578079556 ], [ -58.428502514387858, -34.714551546632464 ], [ -58.428508780767061, -34.714550968404971 ], [ -58.428548837124573, -34.714491139095053 ], [ -58.428588549672902, -34.714431822152385 ], [ -58.428595126776457, -34.714430715704431 ], [ -58.428598478880652, -34.71442576596499 ], [ -58.428604109895687, -34.714424802205556 ], [ -58.428644769536831, -34.714365341642711 ], [ -58.428685136341763, -34.714306310828441 ], [ -58.428691037023036, -34.714304906758947 ], [ -58.42869674950024, -34.714296622366241 ], [ -58.428708032590272, -34.714293889706518 ], [ -58.428806126882236, -34.714153752805309 ], [ -58.428902905158672, -34.714015496107955 ], [ -58.428915424652487, -34.714010845324601 ], [ -58.428964433256525, -34.713946135640562 ], [ -58.428966657944855, -34.713943226199916 ], [ -58.428971772764022, -34.713941318480799 ], [ -58.429020202464031, -34.713873608739817 ], [ -58.429068370933877, -34.713806263476457 ], [ -58.429073733705991, -34.713803986004393 ], [ -58.429077770598383, -34.713798364842063 ], [ -58.429082622822818, -34.713796294354893 ], [ -58.429131302820728, -34.713728741168921 ], [ -58.429179747129218, -34.713661514305223 ], [ -58.429184823964036, -34.713659113096 ], [ -58.429187987216281, -34.713654736997348 ], [ -58.429215202716158, -34.713617088349686 ], [ -58.429220569587685, -34.713614479134989 ], [ -58.429247921401021, -34.713576761281338 ], [ -58.429250197787695, -34.713573622292074 ], [ -58.429277478147561, -34.713536003514839 ], [ -58.429282719456154, -34.713533329072511 ], [ -58.429310127445412, -34.713495643895094 ], [ -58.429313549181806, -34.713490939381458 ], [ -58.429318505945808, -34.713488348494337 ], [ -58.429373475417144, -34.713412959191324 ], [ -58.42942820381711, -34.713337901676923 ], [ -58.429433393855888, -34.713334976359711 ], [ -58.429440260435854, -34.713325579672954 ], [ -58.429449465063286, -34.713320370153859 ], [ -58.429560097999179, -34.713169611204094 ], [ -58.429669883750151, -34.71302000678299 ], [ -58.42967990872598, -34.713013631216974 ], [ -58.429732532632151, -34.712944942705356 ], [ -58.429734752059211, -34.712942047733883 ], [ -58.429736663203187, -34.712934812887283 ], [ -58.429821206812726, -34.712829133306315 ], [ -58.429906209660587, -34.712722878638651 ], [ -58.429907649206186, -34.712716211752877 ], [ -58.429914726377199, -34.712707387614309 ], [ -58.429916320438025, -34.712699932056502 ], [ -58.430001168535867, -34.712594466899667 ], [ -58.430086541118911, -34.71248834927632 ], [ -58.430087595014115, -34.712481536394193 ], [ -58.430094704088617, -34.712472728996005 ], [ -58.430095880550006, -34.712464983604448 ], [ -58.430181129256283, -34.71235980024332 ], [ -58.430266988024805, -34.712253863362328 ], [ -58.430267534316407, -34.712246858146464 ], [ -58.43027468631572, -34.712238073668487 ], [ -58.430275292719905, -34.712229932075154 ], [ -58.430361088958477, -34.7121251324361 ], [ -58.430447612999529, -34.712019444496661 ], [ -58.430447463792738, -34.71201217434475 ], [ -58.430500095070627, -34.711944049650967 ], [ -58.430502307959337, -34.711941158347813 ], [ -58.430502069456089, -34.711932632795111 ], [ -58.430586690417982, -34.71183035429182 ], [ -58.430672174063275, -34.711727033580161 ], [ -58.430671031827387, -34.711719524521932 ], [ -58.430678167195985, -34.711710983574193 ], [ -58.430764330612611, -34.711607853107466 ], [ -58.430760106492926, -34.711590043831443 ], [ -58.430846772303205, -34.71148928871208 ], [ -58.430854054093111, -34.711480822647161 ], [ -58.430942156771081, -34.711378396649664 ], [ -58.430932684057808, -34.711357570098784 ], [ -58.431022440202916, -34.711259013847013 ], [ -58.431030011629282, -34.711250699397638 ], [ -58.431122005335226, -34.711149685910911 ], [ -58.431099011472156, -34.711120699870477 ], [ -58.431197822940653, -34.711028587956136 ], [ -58.431227985385576, -34.710992303103247 ], [ -58.43122907307265, -34.710990878846737 ], [ -58.431339746353203, -34.710885898021147 ], [ -58.43049219536131, -34.710265350879354 ], [ -58.431484112142876, -34.710627554323978 ], [ -58.431563580301301, -34.710524665115216 ], [ -58.431565823764714, -34.710521778841731 ], [ -58.431627741649599, -34.710442186919913 ], [ -58.431782935901815, -34.710243968411902 ], [ -58.431793985582502, -34.71022063839262 ], [ -58.431948585675975, -34.710023646155449 ], [ -58.432001129729485, -34.709956175310992 ], [ -58.432003365523997, -34.709953289119746 ], [ -58.432156127206071, -34.709762283214481 ], [ -58.432166481677825, -34.709739409294166 ], [ -58.432318632191333, -34.709549716396054 ], [ -58.432320843412953, -34.709546798941574 ], [ -58.432394400379152, -34.70945011583396 ], [ -58.432551573777552, -34.709241365424511 ], [ -58.432561072115249, -34.709216134654284 ], [ -58.432717560114796, -34.709009144273175 ], [ -58.432719761378472, -34.709006220619386 ], [ -58.432770355800983, -34.708940008096469 ], [ -58.433098358594613, -34.708527118907604 ], [ -58.433116676034423, -34.708474450712188 ], [ -58.433441494572257, -34.708070338239956 ], [ -58.433443763675612, -34.708067427294949 ], [ -58.433512057549194, -34.707981195946886 ], [ -58.433858781746984, -34.707557090065933 ], [ -58.433869641899861, -34.707495132123313 ], [ -58.434213146309325, -34.707087554724787 ], [ -58.434215423700316, -34.707084621134918 ], [ -58.434296033359189, -34.706983310280989 ], [ -58.434648668250261, -34.706554458321612 ], [ -58.434610142798753, -34.706431377028359 ], [ -58.434984288666726, -34.706078085917639 ], [ -58.43502938944544, -34.706026960497034 ], [ -58.435030480293342, -34.70602553707122 ], [ -58.435145544461108, -34.705914390135341 ], [ -58.434301895646691, -34.705288356236586 ], [ -58.433458889424799, -34.704193985325141 ], [ -58.432020316959154, -34.704461097036862 ], [ -58.431508736798605, -34.704546938825189 ], [ -58.43001539330421, -34.704823867687146 ], [ -58.429549673125123, -34.704909911997021 ], [ -58.428055811904628, -34.70518499786175 ], [ -58.427595934345341, -34.70528718295418 ], [ -58.42612019338204, -34.705543639484546 ], [ -58.425611811199431, -34.705636682112569 ], [ -58.424169162584157, -34.705899130032641 ], [ -58.42340511822438, -34.706869072765272 ], [ -58.423719610764714, -34.708063299248778 ], [ -58.423821233171587, -34.708484690287712 ], [ -58.424148062347761, -34.709741179871983 ], [ -58.424239854626862, -34.710123837184518 ] ] ] ] } },
{ "type": "Feature", "properties": { "ObjectID": 3, "FacilityID": 4, "Name": "Location 4 : 0 - 10", "FromBreak": 0.0, "ToBreak": 10.0 }, "geometry": { "type": "MultiPolygon", "coordinates": [ [ [ [ -58.371071820293771, -34.727833964259347 ], [ -58.369909277344725, -34.72797548726215 ], [ -58.369071598728056, -34.727941255562769 ], [ -58.367776459911916, -34.728138583706937 ], [ -58.367722825735932, -34.728136264789548 ], [ -58.367720273227953, -34.728179135613196 ], [ -58.367486872282583, -34.729295224353528 ], [ -58.367461736979131, -34.729740922722961 ], [ -58.367217027029085, -34.730842165709888 ], [ -58.367198301835714, -34.731329745410335 ], [ -58.367137286684901, -34.732251708491894 ], [ -58.367126332990708, -34.732461649937129 ], [ -58.367076352474413, -34.73370239477623 ], [ -58.367060883799581, -34.733980735781529 ], [ -58.367025746704378, -34.735231833156156 ], [ -58.367009560333798, -34.735513947014582 ], [ -58.367210318948736, -34.736814125240123 ], [ -58.367205206514939, -34.73691735719089 ], [ -58.367332222821119, -34.73692169517544 ], [ -58.368969389257437, -34.736943006240303 ], [ -58.3689958054903, -34.736975787257272 ], [ -58.369007390451252, -34.736975952662803 ], [ -58.369108027429668, -34.737020889273722 ], [ -58.370630260726394, -34.737062273599726 ], [ -58.370888936905615, -34.737068328421557 ], [ -58.372302496772157, -34.737114099494086 ], [ -58.372702511635197, -34.737126802170664 ], [ -58.373955056283805, -34.737141921843808 ], [ -58.374456156234665, -34.737155216923128 ], [ -58.375576738777546, -34.737177555165154 ], [ -58.376174137814104, -34.737191935704828 ], [ -58.377418514034417, -34.737062972156295 ], [ -58.377810992620056, -34.737072874341301 ], [ -58.377822861728028, -34.736751131839895 ], [ -58.37826473568272, -34.735904436026253 ], [ -58.378297348512447, -34.735093338118475 ], [ -58.378347814349816, -34.734605388639203 ], [ -58.378438276995617, -34.733814126659261 ], [ -58.377464654981779, -34.733272914322583 ], [ -58.377224732333602, -34.733456642909452 ], [ -58.377223128283198, -34.733457683158093 ], [ -58.377168469091245, -34.73349612831435 ], [ -58.377130074751705, -34.73348432690247 ], [ -58.377122036887059, -34.733468396633135 ], [ -58.376943075977259, -34.733467682776961 ], [ -58.376940171917155, -34.733465188278394 ], [ -58.376586298452189, -34.733175157365409 ], [ -58.376561620366004, -34.733133066529774 ], [ -58.376203765630429, -34.732836443855447 ], [ -58.376111317251357, -34.732758837418864 ], [ -58.376108399424091, -34.732756365588415 ], [ -58.375764366004809, -34.732475054944949 ], [ -58.375737458187174, -34.732437320014675 ], [ -58.375390273574354, -34.732151681420063 ], [ -58.375326246915861, -34.732097282642798 ], [ -58.37532335741156, -34.732094804163516 ], [ -58.375158970152704, -34.731954373526243 ], [ -58.375146054466448, -34.731936315167935 ], [ -58.375143320854889, -34.731933953899734 ], [ -58.375069341908585, -34.731718347039866 ], [ -58.375065984615176, -34.731712870599026 ], [ -58.375063607003838, -34.731710843308754 ], [ -58.37506166420733, -34.73170725180568 ], [ -58.37505936411047, -34.731705290338695 ], [ -58.375071568226765, -34.731658714145951 ], [ -58.375074514768812, -34.731656267112164 ], [ -58.375162958751659, -34.731583500881122 ], [ -58.375640803296456, -34.731198818792897 ], [ -58.375677480348998, -34.731146074110072 ], [ -58.376148935565645, -34.730770356569991 ], [ -58.376251150102007, -34.730686786535394 ], [ -58.376254061136279, -34.730684375026726 ], [ -58.376730975742994, -34.730300386053912 ], [ -58.376760741136216, -34.73023883205073 ], [ -58.37676474635316, -34.730235515843063 ], [ -58.377849301698944, -34.72915043855479 ], [ -58.377829824621571, -34.728088928145695 ], [ -58.376693828523052, -34.728017813078637 ], [ -58.376648766854487, -34.728015124489623 ], [ -58.37521121989456, -34.727976758167756 ], [ -58.374378289111775, -34.727990426926766 ], [ -58.373143144441578, -34.727912240388022 ], [ -58.37210939812433, -34.727891741833879 ], [ -58.371071820293771, -34.727833964259347 ] ] ] ] } },
{ "type": "Feature", "properties": { "ObjectID": 4, "FacilityID": 1, "Name": "Location 1 : 0 - 10", "FromBreak": 0.0, "ToBreak": 10.0 }, "geometry": { "type": "MultiPolygon", "coordinates": [ [ [ [ -58.4139024470634, -34.658721602248143 ], [ -58.413556362201, -34.658757889052495 ], [ -58.413517844321817, -34.658749317812898 ], [ -58.413166804460509, -34.658784561338074 ], [ -58.412435413567835, -34.659062464357234 ], [ -58.412431856793923, -34.659063835038999 ], [ -58.412423650410879, -34.65906960673906 ], [ -58.412423855942869, -34.659071112293795 ], [ -58.41241564811623, -34.659076863279317 ], [ -58.412412660569309, -34.659079252184974 ], [ -58.412351665825142, -34.659128044276102 ], [ -58.412329134382993, -34.659147219866213 ], [ -58.412325279599187, -34.659147935120494 ], [ -58.412302677486196, -34.659167125044618 ], [ -58.412301772273466, -34.659169963024702 ], [ -58.412004236353496, -34.660154437045733 ], [ -58.412004420628399, -34.660182273589839 ], [ -58.412223128846463, -34.660768785054564 ], [ -58.412224864733453, -34.660796643278161 ], [ -58.412246907640252, -34.661441772653234 ], [ -58.412247715266361, -34.661462431838672 ], [ -58.412245371653121, -34.66146561727232 ], [ -58.412215565318824, -34.66149234739914 ], [ -58.412004406115486, -34.66178561325269 ], [ -58.412100667021612, -34.662926975131221 ], [ -58.41210101033473, -34.662929657135713 ], [ -58.412143386789779, -34.662942697985876 ], [ -58.412148404783913, -34.662950221893198 ], [ -58.412160781411188, -34.662968977728077 ], [ -58.412134861283263, -34.663063853395279 ], [ -58.41213187413306, -34.663101246577099 ], [ -58.41212903374128, -34.663103766267938 ], [ -58.412103058909992, -34.663125862378955 ], [ -58.41168804666281, -34.663457794825206 ], [ -58.411656584538868, -34.663503362989793 ], [ -58.411598555481255, -34.663531958386137 ], [ -58.411462973311494, -34.663498808920494 ], [ -58.411272652800257, -34.663284269120254 ], [ -58.409788714494958, -34.663040110582607 ], [ -58.409785648616733, -34.663039626870692 ], [ -58.409661970193739, -34.663091670830461 ], [ -58.409658782281802, -34.663111417219355 ], [ -58.409535710730665, -34.663160208322317 ], [ -58.409531218093974, -34.663160180954172 ], [ -58.409448696046312, -34.663200409980739 ], [ -58.409055255829578, -34.663361501736048 ], [ -58.40919274707052, -34.66435954033502 ], [ -58.409269114391016, -34.664744830465558 ], [ -58.409254220791667, -34.665988758193159 ], [ -58.409253988591907, -34.66602097462809 ], [ -58.409290096240639, -34.666021808222624 ], [ -58.410650103682102, -34.666418493680787 ], [ -58.411155854241521, -34.666449451981158 ], [ -58.412143692205241, -34.666540924410313 ], [ -58.412743698685425, -34.666567277897251 ], [ -58.41430217682354, -34.666643711801946 ], [ -58.415459022488903, -34.666529513363038 ], [ -58.415662329399119, -34.66653587363232 ], [ -58.416973774901763, -34.666371990817559 ], [ -58.417429255411889, -34.666317291129516 ], [ -58.417575325235362, -34.66632242007622 ], [ -58.417574960199829, -34.666321804203115 ], [ -58.41757952892717, -34.666290556771884 ], [ -58.417577922718174, -34.666283041193608 ], [ -58.41848584296563, -34.666295926252545 ], [ -58.418613368037178, -34.66573287184174 ], [ -58.418641920597288, -34.665719595470215 ], [ -58.418382086531132, -34.664577040604044 ], [ -58.419212872480529, -34.664432686007117 ], [ -58.419464972704191, -34.664360066572378 ], [ -58.419464867659386, -34.66435838500341 ], [ -58.419508469026724, -34.664344514069683 ], [ -58.419509119996285, -34.664344433480828 ], [ -58.41962623991126, -34.663406860166042 ], [ -58.42006639820579, -34.662777235196621 ], [ -58.420362289873893, -34.662484006807823 ], [ -58.421095303127643, -34.661809142645076 ], [ -58.421043591488484, -34.660913312782021 ], [ -58.419682039440858, -34.660919893540559 ], [ -58.419921085128408, -34.660034840837312 ], [ -58.418574798712292, -34.659634107839032 ], [ -58.418546212628051, -34.659602032064797 ], [ -58.416061237045305, -34.65900614628891 ], [ -58.416043891456368, -34.659003606814352 ], [ -58.416029297804151, -34.659001377878731 ], [ -58.416011801509342, -34.659002803324945 ], [ -58.416007885050242, -34.659001622099211 ], [ -58.415907128002573, -34.658971404298093 ], [ -58.415528825101816, -34.658864922505202 ], [ -58.415493982723987, -34.658840556562048 ], [ -58.415110724745837, -34.658730699603012 ], [ -58.414517427899312, -34.658668894514342 ], [ -58.414513424235516, -34.658668484894505 ], [ -58.414274347475022, -34.658685305198773 ], [ -58.414250470133823, -34.658696110719134 ], [ -58.414013677861718, -34.658711932369819 ], [ -58.41400952796927, -34.658712289664173 ], [ -58.4139024470634, -34.658721602248143 ] ] ] ] } }
]
}
