{
"type": "FeatureCollection",
"name": "Espacios_verdes",
"crs": { "type": "name", "properties": { "name": "urn:ogc:def:crs:OGC:1.3:CRS84" } },
"features": [
{ "type": "Feature", "properties": { "stroke": null, "stroke-wid": 0, "stroke-opa": 0, "fill": null, "fill-opaci": 0.0, "name": "Plaza Mendieta Bassi", "adddress": null, "address": "R. Argentina, Rivadavia, P. de la Patria y Balbín.", "area": 0, "centroid": null, "superficie": 8120.1535648199997 }, "geometry": { "type": "Point", "coordinates": [ -58.418618434908652, -34.724914832512496 ] } },
{ "type": "Feature", "properties": { "stroke": null, "stroke-wid": 0, "stroke-opa": 0, "fill": null, "fill-opaci": 0.0, "name": "Parque General Belgrano", "adddress": null, "address": "Donato Álvarez y Rondeau", "area": 32096, "centroid": "-58.3469,-34.7245", "superficie": 32032.2274516 }, "geometry": { "type": "Point", "coordinates": [ -58.346850535611729, -34.724546473603915 ] } },
{ "type": "Feature", "properties": { "stroke": null, "stroke-wid": 0, "stroke-opa": 0, "fill": null, "fill-opaci": 0.0, "name": "Parque Eva Perón", "adddress": null, "address": "Vías del Ferrocarril, Purita, Ferré y Oncativo.", "area": 0, "centroid": null, "superficie": 185418.49178499999 }, "geometry": { "type": "Point", "coordinates": [ -58.390220711024256, -34.717566265844219 ] } },
{ "type": "Feature", "properties": { "stroke": "#555555", "stroke-wid": 2, "stroke-opa": 1, "fill": "#555555", "fill-opaci": 0.5, "name": "Plaza San Martín", "adddress": null, "address": "Ocampo, Plaul, Balcarce y E. Fernández.", "area": 0, "centroid": null, "superficie": 7542.6795314000001 }, "geometry": { "type": "Point", "coordinates": [ -58.407012237291603, -34.689896467571828 ] } },
{ "type": "Feature", "properties": { "stroke": null, "stroke-wid": 0, "stroke-opa": 0, "fill": null, "fill-opaci": 0.0, "name": "Plaza 20 de Junio", "adddress": null, "address": "Balcarce, Ocampo, Otamendi y Madero.", "area": 0, "centroid": null, "superficie": 6658.0425193000001 }, "geometry": { "type": "Point", "coordinates": [ -58.42287729020159, -34.669789025655867 ] } },
{ "type": "Feature", "properties": { "stroke": null, "stroke-wid": 0, "stroke-opa": 0, "fill": null, "fill-opaci": 0.0, "name": "Plaza Giardino", "adddress": null, "address": "M. Avellaneda, San Vladimiro, Murguiondo y Moliendo", "area": 0, "centroid": null, "superficie": 15117.346259899999 }, "geometry": { "type": "Point", "coordinates": [ -58.436251315660385, -34.685259086782537 ] } },
{ "type": "Feature", "properties": { "stroke": null, "stroke-wid": 0, "stroke-opa": 0, "fill": null, "fill-opaci": 0.0, "name": "Plaza General Arias", "adddress": null, "address": null, "area": 0, "centroid": null, "superficie": 12308.199098200001 }, "geometry": { "type": "Point", "coordinates": [ -58.388196260782763, -34.714150702032605 ] } },
{ "type": "Feature", "properties": { "stroke": null, "stroke-wid": 0, "stroke-opa": 0, "fill": null, "fill-opaci": 0.0, "name": "Plaza Arias", "adddress": null, "address": "C. Gardel, Derqui, Lavalleja y Miller.", "area": 0, "centroid": null, "superficie": 8688.6038977000007 }, "geometry": { "type": "Point", "coordinates": [ -58.411525511723546, -34.70629880092158 ] } },
{ "type": "Feature", "properties": { "stroke": null, "stroke-wid": 0, "stroke-opa": 0, "fill": null, "fill-opaci": 0.0, "name": "Plaza Mariano Moreno", "adddress": null, "address": "Av. H. Yrigoyen, Est. Rdos. de Escalada, Barragan y Caputo.", "area": 0, "centroid": null, "superficie": 16169.8471224 }, "geometry": { "type": "Point", "coordinates": [ -58.394993448292595, -34.727630157311715 ] } },
{ "type": "Feature", "properties": { "stroke": null, "stroke-wid": 0, "stroke-opa": 0, "fill": null, "fill-opaci": 0.0, "name": "Plaza Sarmiento", "adddress": null, "address": "Av. 9 de Julio, Guidi, Ituzaingó y Ferré.", "area": 0, "centroid": null, "superficie": 11759.650349899999 }, "geometry": { "type": "Point", "coordinates": [ -58.381833550962952, -34.713224491626057 ] } },
{ "type": "Feature", "properties": { "stroke": null, "stroke-wid": 0, "stroke-opa": 0, "fill": null, "fill-opaci": 0.0, "name": "Plaza Villa Obrera", "adddress": null, "address": "Tucumán, Pergamino, Eva Perón, Villa de Luján", "area": 0, "centroid": null, "superficie": 18153.176106499999 }, "geometry": { "type": "Point", "coordinates": [ -58.374256980053808, -34.714191888639583 ] } },
{ "type": "Feature", "properties": { "stroke": null, "stroke-wid": 0, "stroke-opa": 0, "fill": null, "fill-opaci": 0.0, "name": "Plaza General Madariaga", "adddress": null, "address": "Deheza, Gascón y Marini.", "area": 0, "centroid": null, "superficie": 2674.2497567599999 }, "geometry": { "type": "Point", "coordinates": [ -58.362649033464166, -34.705783791185361 ] } },
{ "type": "Feature", "properties": { "stroke": null, "stroke-wid": 0, "stroke-opa": 0, "fill": null, "fill-opaci": 0.0, "name": "Sin nombre", "adddress": null, "address": "Roldán de García y Bueras", "area": 0, "centroid": null, "superficie": 2687.5517579299999 }, "geometry": { "type": "Point", "coordinates": [ -58.363162817622388, -34.705476003460412 ] } },
{ "type": "Feature", "properties": { "stroke": null, "stroke-wid": 0, "stroke-opa": 0, "fill": null, "fill-opaci": 0.0, "name": "Sin nombre", "adddress": null, "address": "Roldán de García, Maure, Marini y Bueras", "area": 0, "centroid": null, "superficie": 3930.64595 }, "geometry": { "type": "Point", "coordinates": [ -58.363312139767608, -34.704287474138248 ] } },
{ "type": "Feature", "properties": { "stroke": null, "stroke-wid": 0, "stroke-opa": 0, "fill": null, "fill-opaci": 0.0, "name": "Plaza Eva Perón", "adddress": null, "address": "Florida, Liniers, Islas Malvinas y A. Storni.", "area": 0, "centroid": null, "superficie": 4862.9084190100002 }, "geometry": { "type": "Point", "coordinates": [ -58.415605123422665, -34.678514551689879 ] } },
{ "type": "Feature", "properties": { "stroke": null, "stroke-wid": 0, "stroke-opa": 0, "fill": null, "fill-opaci": 0.0, "name": "Parque de Juegos Millán", "adddress": null, "address": "Millán e/ Otamendi y Lucero.", "area": 0, "centroid": null, "superficie": 11603.2821647 }, "geometry": { "type": "Point", "coordinates": [ -58.423455961400094, -34.671544358268896 ] } },
{ "type": "Feature", "properties": { "stroke": null, "stroke-wid": 0, "stroke-opa": 0, "fill": null, "fill-opaci": 0.0, "name": "Parque General San Martín", "adddress": null, "address": "Rivadavia, Sayos, Viamonte y Balbín", "area": 0, "centroid": null, "superficie": 27714.899009000001 }, "geometry": { "type": "Point", "coordinates": [ -58.416530499013852, -34.686890363925187 ] } },
{ "type": "Feature", "properties": { "stroke": null, "stroke-wid": 0, "stroke-opa": 0, "fill": null, "fill-opaci": 0.0, "name": "Plaza Bernardo de Monteagudo", "adddress": null, "address": "J. Moreno, Dean Funes, Romero y Pilcomayo", "area": 0, "centroid": null, "superficie": 3562.6337187 }, "geometry": { "type": "Point", "coordinates": [ -58.4190767546581, -34.694639366931 ] } },
{ "type": "Feature", "properties": { "stroke": null, "stroke-wid": 0, "stroke-opa": 0, "fill": null, "fill-opaci": 0.0, "name": "Plaza 25 de Mayo", "adddress": null, "address": "25 de Mayo y S. Plaul, La Rioja y A. del Valle", "area": 0, "centroid": null, "superficie": 5318.25945546 }, "geometry": { "type": "Point", "coordinates": [ -58.419402942094422, -34.698956712243422 ] } },
{ "type": "Feature", "properties": { "stroke": null, "stroke-wid": 0, "stroke-opa": 0, "fill": null, "fill-opaci": 0.0, "name": "Plaza Capitán de Los Andes", "adddress": null, "address": "Hipólito Yrigoyen(Palacio Municipal)", "area": 0, "centroid": null, "superficie": 5017.7142723200004 }, "geometry": { "type": "Point", "coordinates": [ -58.392472771662767, -34.699393622565509 ] } },
{ "type": "Feature", "properties": { "stroke": null, "stroke-wid": 0, "stroke-opa": 0, "fill": null, "fill-opaci": 0.0, "name": "Plaza Ricardo Rojas", "adddress": null, "address": "Bustamante, Burela, Damonte y Mamberti", "area": 0, "centroid": null, "superficie": 13884.131754399999 }, "geometry": { "type": "Point", "coordinates": [ -58.376281506110026, -34.693252335150255 ] } },
{ "type": "Feature", "properties": { "stroke": null, "stroke-wid": 0, "stroke-opa": 0, "fill": null, "fill-opaci": 0.0, "name": "Plaza Paseo de la Constitución", "adddress": null, "address": "Madariaga, Bouchard, Maure y Esquiú", "area": 0, "centroid": null, "superficie": 10958.896570499999 }, "geometry": { "type": "Point", "coordinates": [ -58.366487398230582, -34.703219582771837 ] } },
{ "type": "Feature", "properties": { "stroke": null, "stroke-wid": 0, "stroke-opa": 0, "fill": null, "fill-opaci": 0.0, "name": "Plazoleta La Fe", "adddress": null, "address": "Pinto, Pirovano, Pitágoras y Posadas", "area": 0, "centroid": null, "superficie": 7860.5067791600004 }, "geometry": { "type": "Point", "coordinates": [ -58.355879973951424, -34.716444987778921 ] } },
{ "type": "Feature", "properties": { "stroke": null, "stroke-wid": 0, "stroke-opa": 0, "fill": null, "fill-opaci": 0.0, "name": "Plaza Cavia", "adddress": null, "address": "Cavia, Maure y Bueras", "area": 0, "centroid": null, "superficie": 6482.1001935100003 }, "geometry": { "type": "Point", "coordinates": [ -58.340327669907708, -34.723670976540085 ] } },
{ "type": "Feature", "properties": { "stroke": null, "stroke-wid": 0, "stroke-opa": 0, "fill": null, "fill-opaci": 0.0, "name": "Plaza Barrio la Fe", "adddress": null, "address": "Pje. Las Malvinas, Juncal, Pringles y Rondeau", "area": 0, "centroid": null, "superficie": 4380.3208813800002 }, "geometry": { "type": "Point", "coordinates": [ -58.351125938029078, -34.726344144096785 ] } },
{ "type": "Feature", "properties": { "stroke": null, "stroke-wid": 0, "stroke-opa": 0, "fill": null, "fill-opaci": 0.0, "name": "Parque Lineal Monte Chingolo", "adddress": null, "address": "Pitágoras, Martinto, Rondeau y Pintos", "area": 0, "centroid": null, "superficie": 91823.860255699998 }, "geometry": { "type": "Point", "coordinates": [ -58.349985861284949, -34.731867763390376 ] } },
{ "type": "Feature", "properties": { "stroke": null, "stroke-wid": 0, "stroke-opa": 0, "fill": null, "fill-opaci": 0.0, "name": "Plaza Leandro N. Alem", "adddress": null, "address": "Condarco e/ Arias, Purita y Corvalán.", "area": 0, "centroid": null, "superficie": 10332.4766851 }, "geometry": { "type": "Point", "coordinates": [ -58.361487571509571, -34.733806177343084 ] } },
{ "type": "Feature", "properties": { "stroke": null, "stroke-wid": 0, "stroke-opa": 0, "fill": null, "fill-opaci": 0.0, "name": "Plaza 4 de Junio", "adddress": null, "address": "Las Piedras, Salcedo, Rossi y San Carlos", "area": 0, "centroid": null, "superficie": 3722.1176234200002 }, "geometry": { "type": "Point", "coordinates": [ -58.351614036896066, -34.738855867264675 ] } },
{ "type": "Feature", "properties": { "stroke": null, "stroke-wid": 0, "stroke-opa": 0, "fill": null, "fill-opaci": 0.0, "name": "Plazoleta R. De Escalada", "adddress": null, "address": "Remedios de Escalada de San Martín", "area": 0, "centroid": null, "superficie": 27156.103187500001 }, "geometry": { "type": "Point", "coordinates": [ -58.399740129772773, -34.683975237330685 ] } },
{ "type": "Feature", "properties": { "stroke": null, "stroke-wid": 0, "stroke-opa": 0, "fill": null, "fill-opaci": 0.0, "name": "Plazoleta Bernardino Rivadavia", "adddress": null, "address": "Bernardino Rivadavia", "area": 0, "centroid": null, "superficie": 13114.063934600001 }, "geometry": { "type": "Point", "coordinates": [ -58.399660512442722, -34.676375248971929 ] } },
{ "type": "Feature", "properties": { "stroke": null, "stroke-wid": 0, "stroke-opa": 0, "fill": null, "fill-opaci": 0.0, "name": "Plaza Carlos Gardel", "adddress": null, "address": "Heroes de Malvinas y Aconcagua", "area": 0, "centroid": null, "superficie": 4753.4447177800002 }, "geometry": { "type": "Point", "coordinates": [ -58.384614727138825, -34.735954181388223 ] } },
{ "type": "Feature", "properties": { "stroke": null, "stroke-wid": 0, "stroke-opa": 0, "fill": null, "fill-opaci": 0.0, "name": "Plaza Facundo Quiroga", "adddress": null, "address": "Mitre, Eva Perón, San Carlos y Blas Parera.", "area": 0, "centroid": null, "superficie": 5981.1621636600003 }, "geometry": { "type": "Point", "coordinates": [ -58.347503570137818, -34.733661598668341 ] } },
{ "type": "Feature", "properties": { "stroke": null, "stroke-wid": 0, "stroke-opa": 0, "fill": null, "fill-opaci": 0.0, "name": "Plaza Facundo Quiroga", "adddress": null, "address": "Eva Perón, Victor Hugo y Donato Alvarez", "area": 0, "centroid": null, "superficie": 2685.9762199000002 }, "geometry": { "type": "Point", "coordinates": [ -58.345099603067993, -34.734632701642127 ] } },
{ "type": "Feature", "properties": { "stroke": null, "stroke-wid": 0, "stroke-opa": 0, "fill": null, "fill-opaci": 0.0, "name": "Plaza sin nombre", "adddress": null, "address": "B. de los Italianos, Donato Álvarez, Bueras y Pirovano", "area": 0, "centroid": null, "superficie": 5650.3266821899997 }, "geometry": { "type": "Point", "coordinates": [ -58.350326896111966, -34.716723877210363 ] } },
{ "type": "Feature", "properties": { "stroke": null, "stroke-wid": 0, "stroke-opa": 0, "fill": null, "fill-opaci": 0.0, "name": "Plaza San José Obrero", "adddress": null, "address": "Ucrania, San Vladimiro, Grecia y Oliden.", "area": 0, "centroid": null, "superficie": 8375.1708861000006 }, "geometry": { "type": "Point", "coordinates": [ -58.430207884117635, -34.691895680975556 ] } },
{ "type": "Feature", "properties": { "stroke": null, "stroke-wid": 0, "stroke-opa": 0, "fill": null, "fill-opaci": 0.0, "name": "Plazoleta B. Bancario", "adddress": null, "address": "Osorio, Yerbal y L. Valentinas.", "area": 0, "centroid": null, "superficie": 3007.7525795800002 }, "geometry": { "type": "Point", "coordinates": [ -58.435958252190879, -34.68106980865997 ] } },
{ "type": "Feature", "properties": { "stroke": "#555555", "stroke-wid": 2, "stroke-opa": 1, "fill": "#555555", "fill-opaci": 0.5, "name": "Plaza Gral. Manuel Belgrano", "adddress": null, "address": "Av. H. Yrigoyen, M. Weild, J. V. González y 20 de Octubre.", "area": 0, "centroid": null, "superficie": 3376.42018151 }, "geometry": { "type": "Point", "coordinates": [ -58.391141207979409, -34.707268876979811 ] } },
{ "type": "Feature", "properties": { "stroke": null, "stroke-wid": 0, "stroke-opa": 0, "fill": null, "fill-opaci": 0.0, "name": "Parque de Juego Eva Perón", "adddress": null, "address": "Eva Perón, Gral. Paz y Pringles.", "area": 0, "centroid": null, "superficie": 5562.6390764099997 }, "geometry": { "type": "Point", "coordinates": [ -58.358326314033803, -34.724385264399501 ] } },
{ "type": "Feature", "properties": { "stroke": null, "stroke-wid": 0, "stroke-opa": 0, "fill": null, "fill-opaci": 0.0, "name": "Parque de los Derechos de los Niños", "adddress": null, "address": "Eva Perón y Pje Ituzaingó", "area": 0, "centroid": null, "superficie": 2685.67395308 }, "geometry": { "type": "Point", "coordinates": [ -58.358992097631187, -34.724738632991723 ] } },
{ "type": "Feature", "properties": { "stroke": null, "stroke-wid": 0, "stroke-opa": 0, "fill": null, "fill-opaci": 0.0, "name": "Plaza sin nombre", "adddress": null, "address": "Gral. Paz y B. de los Italianos", "area": 0, "centroid": null, "superficie": 5723.8176995599997 }, "geometry": { "type": "Point", "coordinates": [ -58.357184111268623, -34.724535002822499 ] } }
]
}
